HORUS 2                 
1 55844U 23032A   26159.51802530  .00005291  00000+0  22573-3 0  9991
2 55844  97.3533 235.0929 0002131 112.8929 247.2533 15.23334457180166
GLOBAL-19               
1 55982U 23041B   26158.55212232  .00013817  00000+0  36664-3 0  9990
2 55982  42.0071 258.0671 0011377 294.4113  65.5539 15.38030479180447
BRO-9                   
1 56185U 23054H   26159.51058624  .00505861  10737-3  12406-2 0  9994
2 56185  97.2944  77.2821 0006516 140.0950 220.0806 15.96072906177701
ION SCV-010             
1 56192U 23054Q   26159.24296345  .00004462  00000+0  17548-3 0  9998
2 56192  97.3792  48.8582 0011405 230.9510 129.0714 15.26120028174832
TELEOS-2                
1 56310U 23057C   26158.89154152  .00006011  00000+0  45670-3 0  9991
2 56310   9.9883 271.8788 0000885 272.4050  87.6062 14.96414087171402
SNIPE 4                 
1 56744U 23072B   26159.51934219  .00018758  00000+0  44133-3 0  9993
2 56744  97.5265   5.2519 0005241  13.1879 346.9504 15.42009165168778
SNIPE 2                 
1 56745U 23072C   26159.52245056  .00025050  00000+0  50683-3 0  9999
2 56745  97.5258   8.2395 0005116  44.0609 316.1046 15.46425247168903
2023-072G               
1 56749U 23072G   26159.54352199  .00028263  00000+0  50342-3 0  9993
2 56749  97.4923   7.0547 0003830  36.1911 323.9599 15.50080374169127
GEISAT PRECURSOR        
1 56934U 23084C   26159.48131103  .00006770  00000+0  20482-3 0  9996
2 56934  97.6212 300.1496 0005801  29.7937 330.3635 15.34533114166196
BLACKJACK ACES-3        
1 56950U 23084U   26159.33963558  .00004903  00000+0  24159-3 0  9996
2 56950  97.6199 294.4647 0003370  58.2905 301.8657 15.18429074165829
BLACKJACK ACES-2        
1 56955U 23084Z   26159.34621627  .00005774  00000+0  28327-3 0  9998
2 56955  97.6196 294.5557 0001607  70.6968 289.4440 15.18501641165833
BLACKJACK ACES-1        
1 56956U 23084AA  26159.33434028  .00006420  00000+0  31465-3 0  9991
2 56956  97.6185 294.3180 0001245  96.8237 263.3138 15.18490997115559
ION SCV-011             
1 56957U 23084AB  26159.49209676  .00004798  00000+0  17462-3 0  9995
2 56957  98.1386 345.9667 0008405  72.0600 288.1553 15.28761431164484
GHOST-3                 
1 56958U 23084AC  26159.37077715  .00014866  00000+0  29007-3 0  9995
2 56958  97.6205 307.4723 0005774 331.3097  28.7834 15.47593054166658
TOMORROW-R2             
1 56962U 23084AG  26159.37498006  .00330145  48489-4  62329-3 0  9993
2 56962  97.5999 322.3572 0006765 247.1853 112.8711 16.00772443167645
AFR-1                   
1 56964U 23084AJ  26159.52553978  .00004624  00000+0  16942-3 0  9994
2 56964  97.6261 296.0095 0010767  17.7265 342.4348 15.28482879165906
METEOR-M2 3             
1 57166U 23091A   26159.52646873 -.00000006  00000+0  16348-4 0  9996
2 57166  98.6085 214.6816 0003859 178.5119 181.6072 14.24046088153289
UMKA 1 (RS40S)          
1 57172U 23091G   26159.40854524  .00005533  00000+0  25418-3 0  9990
2 57172  97.5052 218.1401 0013815 145.1794 215.0348 15.20716302162670
2023-091H               
1 57173U 23091H   26159.47628014  .00011102  00000+0  40283-3 0  9997
2 57173  97.5050 222.5989 0011025 139.6410 220.5649 15.28446059162978
2023-091J               
1 57174U 23091J   26159.46362980  .00003272  00000+0  18419-3 0  9999
2 57174  97.5060 212.6847 0013570 171.3513 188.7955 15.13866820162316
CUBEBEL 2 (EU11S)       
1 57175U 23091K   26159.48002257  .00011770  00000+0  42047-3 0  9996
2 57175  97.5053 222.6204 0011061 141.2369 218.9666 15.28941243162971
SITRO-AIS 5 (KATYS)     
1 57176U 23091L   26159.49878808  .00011994  00000+0  42404-3 0  9996
2 57176  97.5062 223.3167 0012707 130.3258 229.9094 15.29255947163015
ZORKIY-2M 1             
1 57177U 23091M   26159.46118870  .00006661  00000+0  30458-3 0  9991
2 57177  97.5094 218.4547 0014406 142.5483 217.6759 15.20787953162672
CUBESX-HSE 3 (RS42S)    
1 57178U 23091N   26159.48172490  .00012866  00000+0  43109-3 0  9993
2 57178  97.5094 224.9602 0012122 121.5061 238.7365 15.30994072163096
MONITOR-3 (RS58S)       
1 57180U 23091Q   26159.48713282  .00010222  00000+0  37979-3 0  9998
2 57180  97.5085 222.8705 0013015 127.7059 232.5362 15.27665648162961
MONITOR-4 (RS57S)       
1 57182U 23091S   26159.46669205  .00010461  00000+0  38748-3 0  9993
2 57182  97.5080 222.8204 0012997 128.0204 232.2210 15.27760295162969
MONITOR-2 (RS39S)       
1 57184U 23091U   26159.48472382  .00005056  00000+0  24566-3 0  9992
2 57184  97.5076 217.8244 0012369 137.8916 222.3271 15.18830268162634
SVYATOBOR 1 (RS60S)     
1 57187U 23091X   26159.47235523  .00009141  00000+0  35274-3 0  9995
2 57187  97.5091 223.2419 0010852 120.5363 239.6948 15.26467025162985
HORS 1                  
1 57188U 23091Y   26159.45849083  .00009058  00000+0  34855-3 0  9997
2 57188  97.5069 222.9917 0010342 120.2541 239.9723 15.26568791162985
VIZARD-METEO (RS38S)    
1 57189U 23091Z   26159.48254831  .00016673  00000+0  48083-3 0  9991
2 57189  97.5092 228.7951 0008687 103.5281 256.6930 15.35748388163358
