OBJECT_NAME,OBJECT_ID,EPOCH,MEAN_MOTION,ECCENTRICITY,INCLINATION,RA_OF_ASC_NODE,ARG_OF_PERICENTER,MEAN_ANOMALY,EPHEMERIS_TYPE,CLASSIFICATION_TYPE,NORAD_CAT_ID,ELEMENT_SET_NO,REV_AT_EPOCH,BSTAR,MEAN_MOTION_DOT,MEAN_MOTION_DDOT
HORUS 2,2023-032A,2026-06-08T12:25:57.385920,15.23334457,.0002131,97.3533,235.0929,112.8929,247.2533,0,U,55844,999,18016,.22573E-3,.5291E-4,0
GLOBAL-19,2023-041B,2026-06-07T13:15:03.368448,15.38030479,.00113776,42.0071,258.0671,294.4113,65.5539,0,U,55982,999,18044,.36663703E-3,.13817E-3,0
BRO-9,2023-054H,2026-06-08T12:15:14.651136,15.96072906,.0006516,97.2944,77.2821,140.0950,220.0806,0,U,56185,999,17770,.12406E-2,.505861E-2,.10737E-3
ION SCV-010,2023-054Q,2026-06-08T05:49:52.042080,15.26120028,.0011405,97.3792,48.8582,230.9510,129.0714,0,U,56192,999,17483,.17548E-3,.4462E-4,0
TELEOS-2,2023-057C,2026-06-07T21:23:49.187328,14.96414087,.00008855,9.9883,271.8788,272.4050,87.6062,0,U,56310,999,17140,.45670091E-3,.6011E-4,0
SNIPE 4,2023-072B,2026-06-08T12:27:51.165216,15.42009165,.0005241,97.5265,5.2519,13.1879,346.9504,0,U,56744,999,16877,.44133E-3,.18758E-3,0
SNIPE 2,2023-072C,2026-06-08T12:32:19.728384,15.46425247,.0005116,97.5258,8.2395,44.0609,316.1046,0,U,56745,999,16890,.50683E-3,.2505E-3,0
2023-072G,2023-072G,2026-06-08T13:02:40.299936,15.50080374,.000383,97.4923,7.0547,36.1911,323.9599,0,U,56749,999,16912,.50342E-3,.28263E-3,0
GEISAT PRECURSOR,2023-084C,2026-06-08T11:33:05.272992,15.34533114,.0005801,97.6212,300.1496,29.7937,330.3635,0,U,56934,999,16619,.20482E-3,.677E-4,0
BLACKJACK ACES-3,2023-084U,2026-06-08T08:09:04.514112,15.18429074,.000337,97.6199,294.4647,58.2905,301.8657,0,U,56950,999,16582,.24159E-3,.4903E-4,0
BLACKJACK ACES-2,2023-084Z,2026-06-08T08:18:33.085728,15.18501641,.0001607,97.6196,294.5557,70.6968,289.4440,0,U,56955,999,16583,.28327E-3,.5774E-4,0
BLACKJACK ACES-1,2023-084AA,2026-06-08T08:01:27.000192,15.18490997,.0001245,97.6185,294.3180,96.8237,263.3138,0,U,56956,999,11555,.31465E-3,.642E-4,0
ION SCV-011,2023-084AB,2026-06-08T11:48:37.160064,15.28761431,.0008405,98.1386,345.9667,72.0600,288.1553,0,U,56957,999,16448,.17462E-3,.4798E-4,0
GHOST-3,2023-084AC,2026-06-08T08:53:55.145760,15.47593054,.0005774,97.6205,307.4723,331.3097,28.7834,0,U,56958,999,16665,.29007E-3,.14866E-3,0
TOMORROW-R2,2023-084AG,2026-06-08T08:59:58.277184,16.00772443,.0006765,97.5999,322.3572,247.1853,112.8711,0,U,56962,999,16764,.62329E-3,.330145E-2,.48489E-4
AFR-1,2023-084AJ,2026-06-08T12:36:46.636992,15.28482879,.0010767,97.6261,296.0095,17.7265,342.4348,0,U,56964,999,16590,.16942E-3,.4624E-4,0
METEOR-M2 3,2023-091A,2026-06-08T12:38:06.898272,14.24046088,.0003859,98.6085,214.6816,178.5119,181.6072,0,U,57166,999,15328,.16348E-4,-.6E-7,0
UMKA 1 (RS40S),2023-091G,2026-06-08T09:48:18.308736,15.20716302,.0013815,97.5052,218.1401,145.1794,215.0348,0,U,57172,999,16267,.25418E-3,.5533E-4,0
2023-091H,2023-091H,2026-06-08T11:25:50.604096,15.28446059,.0011025,97.5050,222.5989,139.6410,220.5649,0,U,57173,999,16297,.40283E-3,.11102E-3,0
2023-091J,2023-091J,2026-06-08T11:07:37.614720,15.13866820,.001357,97.5060,212.6847,171.3513,188.7955,0,U,57174,999,16231,.18419E-3,.3272E-4,0
CUBEBEL 2 (EU11S),2023-091K,2026-06-08T11:31:13.950048,15.28941243,.0011061,97.5053,222.6204,141.2369,218.9666,0,U,57175,999,16297,.42047E-3,.1177E-3,0
SITRO-AIS 5 (KATYS),2023-091L,2026-06-08T11:58:15.290112,15.29255947,.0012707,97.5062,223.3167,130.3258,229.9094,0,U,57176,999,16301,.42404E-3,.11994E-3,0
ZORKIY-2M 1,2023-091M,2026-06-08T11:04:06.703680,15.20787953,.0014406,97.5094,218.4547,142.5483,217.6759,0,U,57177,999,16267,.30458E-3,.6661E-4,0
CUBESX-HSE 3 (RS42S),2023-091N,2026-06-08T11:33:41.031360,15.30994072,.0012122,97.5094,224.9602,121.5061,238.7365,0,U,57178,999,16309,.43109E-3,.12866E-3,0
MONITOR-3 (RS58S),2023-091Q,2026-06-08T11:41:28.275648,15.27665648,.0013015,97.5085,222.8705,127.7059,232.5362,0,U,57180,999,16296,.37979E-3,.10222E-3,0
MONITOR-4 (RS57S),2023-091S,2026-06-08T11:12:02.193120,15.27760295,.0012997,97.5080,222.8204,128.0204,232.2210,0,U,57182,999,16296,.38748E-3,.10461E-3,0
MONITOR-2 (RS39S),2023-091U,2026-06-08T11:38:00.138048,15.18830268,.0012369,97.5076,217.8244,137.8916,222.3271,0,U,57184,999,16263,.24566E-3,.5056E-4,0
SVYATOBOR 1 (RS60S),2023-091X,2026-06-08T11:20:11.491872,15.26467025,.0010852,97.5091,223.2419,120.5363,239.6948,0,U,57187,999,16298,.35274E-3,.9141E-4,0
HORS 1,2023-091Y,2026-06-08T11:00:13.607712,15.26568791,.0010342,97.5069,222.9917,120.2541,239.9723,0,U,57188,999,16298,.34855E-3,.9058E-4,0
VIZARD-METEO (RS38S),2023-091Z,2026-06-08T11:34:52.173984,15.35748388,.0008687,97.5092,228.7951,103.5281,256.6930,0,U,57189,999,16335,.48083E-3,.16673E-3,0
